[{"OBJECT_NAME":"STARLINK-36163","OBJECT_ID":"2025-293F","EPOCH":"2026-03-09T19:16:57.465696","MEAN_MOTION":14.98323714,"ECCENTRICITY":0.00036157,"INCLINATION":70.0013,"RA_OF_ASC_NODE":94.2216,"ARG_OF_PERICENTER":273.6774,"MEAN_ANOMALY":86.3972,"EPHEMERIS_TYPE":0,"CLASSIFICATION_TYPE":"U","NORAD_CAT_ID":67008,"ELEMENT_SET_NO":999,"REV_AT_EPOCH":1490,"BSTAR":0.00020625941,"MEAN_MOTION_DOT":2.369e-5,"MEAN_MOTION_DDOT":0},{"OBJECT_NAME":"SAUDISAT 1B (SO-42)","OBJECT_ID":"2000-057E","EPOCH":"2026-03-09T23:18:23.116032","MEAN_MOTION":14.90902697,"ECCENTRICITY":0.00345198,"INCLINATION":64.5499,"RA_OF_ASC_NODE":306.1635,"ARG_OF_PERICENTER":324.2198,"MEAN_ANOMALY":35.6599,"EPHEMERIS_TYPE":0,"CLASSIFICATION_TYPE":"U","NORAD_CAT_ID":26549,"ELEMENT_SET_NO":999,"REV_AT_EPOCH":37681,"BSTAR":0.00018442418,"MEAN_MOTION_DOT":1.685e-5,"MEAN_MOTION_DDOT":0}]
